[{"OBJECT_NAME":"BEIDOU-3 M19 (C41)","OBJECT_ID":"2019-090A","EPOCH":"2026-04-25T07:24:38.655072","MEAN_MOTION":1.86231193,"ECCENTRICITY":0.0019827,"INCLINATION":56.5154,"RA_OF_ASC_NODE":64.5372,"ARG_OF_PERICENTER":295.9075,"MEAN_ANOMALY":65.7258,"EPHEMERIS_TYPE":0,"CLASSIFICATION_TYPE":"U","NORAD_CAT_ID":44864,"ELEMENT_SET_NO":999,"REV_AT_EPOCH":4325,"BSTAR":0,"MEAN_MOTION_DOT":-2.8e-7,"MEAN_MOTION_DDOT":0},{"OBJECT_NAME":"BEIDOU-3 M20 (C42)","OBJECT_ID":"2019-090B","EPOCH":"2026-04-24T08:44:05.224704","MEAN_MOTION":1.86231081,"ECCENTRICITY":0.00175044,"INCLINATION":56.5162,"RA_OF_ASC_NODE":64.6031,"ARG_OF_PERICENTER":308.2106,"MEAN_ANOMALY":229.5642,"EPHEMERIS_TYPE":0,"CLASSIFICATION_TYPE":"U","NORAD_CAT_ID":44865,"ELEMENT_SET_NO":999,"REV_AT_EPOCH":4321,"BSTAR":0,"MEAN_MOTION_DOT":-2.2e-7,"MEAN_MOTION_DDOT":0},{"OBJECT_NAME":"BEIDOU-3 G2 (C60)","OBJECT_ID":"2020-017A","EPOCH":"2026-04-25T17:24:47.231424","MEAN_MOTION":1.00271445,"ECCENTRICITY":0.0002482,"INCLINATION":2.7608,"RA_OF_ASC_NODE":46.5062,"ARG_OF_PERICENTER":346.6079,"MEAN_ANOMALY":161.8621,"EPHEMERIS_TYPE":0,"CLASSIFICATION_TYPE":"U","NORAD_CAT_ID":45344,"ELEMENT_SET_NO":999,"REV_AT_EPOCH":2273,"BSTAR":0,"MEAN_MOTION_DOT":-1.52e-6,"MEAN_MOTION_DDOT":0},{"OBJECT_NAME":"COSMOS 2545 (760)","OBJECT_ID":"2020-018A","EPOCH":"2026-04-25T04:45:17.687232","MEAN_MOTION":2.13102365,"ECCENTRICITY":0.000717,"INCLINATION":64.3869,"RA_OF_ASC_NODE":314.2817,"ARG_OF_PERICENTER":239.0456,"MEAN_ANOMALY":120.9093,"EPHEMERIS_TYPE":0,"CLASSIFICATION_TYPE":"U","NORAD_CAT_ID":45358,"ELEMENT_SET_NO":999,"REV_AT_EPOCH":4753,"BSTAR":0,"MEAN_MOTION_DOT":-2.5e-7,"MEAN_MOTION_DDOT":0},{"OBJECT_NAME":"BEIDOU-3 G3 (C61)","OBJECT_ID":"2020-040A","EPOCH":"2026-04-25T20:58:51.400128","MEAN_MOTION":1.00270758,"ECCENTRICITY":0.0003709,"INCLINATION":2.3208,"RA_OF_ASC_NODE":67.2914,"ARG_OF_PERICENTER":328.9889,"MEAN_ANOMALY":242.862,"EPHEMERIS_TYPE":0,"CLASSIFICATION_TYPE":"U","NORAD_CAT_ID":45807,"ELEMENT_SET_NO":999,"REV_AT_EPOCH":2154,"BSTAR":0,"MEAN_MOTION_DOT":-3.65e-6,"MEAN_MOTION_DDOT":0},{"OBJECT_NAME":"GPS BIII-3  (PRN 23)","OBJECT_ID":"2020-041A","EPOCH":"2026-04-25T02:18:27.430848","MEAN_MOTION":2.00559675,"ECCENTRICITY":0.00621638,"INCLINATION":56.6375,"RA_OF_ASC_NODE":31.0034,"ARG_OF_PERICENTER":205.0676,"MEAN_ANOMALY":307.4587,"EPHEMERIS_TYPE":0,"CLASSIFICATION_TYPE":"U","NORAD_CAT_ID":45854,"ELEMENT_SET_NO":999,"REV_AT_EPOCH":4297,"BSTAR":0,"MEAN_MOTION_DOT":-9.5e-7,"MEAN_MOTION_DDOT":0},{"OBJECT_NAME":"GALAXY 30 (WAAS/PRN 135)","OBJECT_ID":"2020-056C","EPOCH":"2026-04-25T16:26:15.345312","MEAN_MOTION":1.00270886,"ECCENTRICITY":0.0002407,"INCLINATION":0.0142,"RA_OF_ASC_NODE":234.9528,"ARG_OF_PERICENTER":170.7438,"MEAN_ANOMALY":289.5604,"EPHEMERIS_TYPE":0,"CLASSIFICATION_TYPE":"U","NORAD_CAT_ID":46114,"ELEMENT_SET_NO":999,"REV_AT_EPOCH":2076,"BSTAR":0,"MEAN_MOTION_DOT":0,"MEAN_MOTION_DDOT":0},{"OBJECT_NAME":"COSMOS 2547 (705K)","OBJECT_ID":"2020-075A","EPOCH":"2026-04-25T20:33:14.486688","MEAN_MOTION":2.13100244,"ECCENTRICITY":0.0008353,"INCLINATION":64.5969,"RA_OF_ASC_NODE":194.2211,"ARG_OF_PERICENTER":236.9134,"MEAN_ANOMALY":123.0532,"EPHEMERIS_TYPE":0,"CLASSIFICATION_TYPE":"U","NORAD_CAT_ID":46805,"ELEMENT_SET_NO":999,"REV_AT_EPOCH":4279,"BSTAR":0,"MEAN_MOTION_DOT":-1.5e-7,"MEAN_MOTION_DDOT":0},{"OBJECT_NAME":"GPS BIII-4  (PRN 14)","OBJECT_ID":"2020-078A","EPOCH":"2026-04-22T22:15:39.157056","MEAN_MOTION":2.00564823,"ECCENTRICITY":0.0070939,"INCLINATION":53.9891,"RA_OF_ASC_NODE":213.0193,"ARG_OF_PERICENTER":205.6597,"MEAN_ANOMALY":155.6852,"EPHEMERIS_TYPE":0,"CLASSIFICATION_TYPE":"U","NORAD_CAT_ID":46826,"ELEMENT_SET_NO":999,"REV_AT_EPOCH":4040,"BSTAR":0,"MEAN_MOTION_DOT":-1.7e-7,"MEAN_MOTION_DDOT":0},{"OBJECT_NAME":"GPS BIII-5  (PRN 11)","OBJECT_ID":"2021-054A","EPOCH":"2026-04-25T09:51:21.175200","MEAN_MOTION":2.00572297,"ECCENTRICITY":0.0024043,"INCLINATION":55.1975,"RA_OF_ASC_NODE":334.5809,"ARG_OF_PERICENTER":229.9675,"MEAN_ANOMALY":309.8743,"EPHEMERIS_TYPE":0,"CLASSIFICATION_TYPE":"U","NORAD_CAT_ID":48859,"ELEMENT_SET_NO":999,"REV_AT_EPOCH":3569,"BSTAR":0,"MEAN_MOTION_DOT":-8.1e-7,"MEAN_MOTION_DDOT":0},{"OBJECT_NAME":"QZS-1R (QZSS/PRN 196)","OBJECT_ID":"2021-096A","EPOCH":"2026-04-25T05:44:14.287200","MEAN_MOTION":1.0027335,"ECCENTRICITY":0.0751189,"INCLINATION":37.3564,"RA_OF_ASC_NODE":80.362,"ARG_OF_PERICENTER":270.8159,"MEAN_ANOMALY":83.8411,"EPHEMERIS_TYPE":0,"CLASSIFICATION_TYPE":"U","NORAD_CAT_ID":49336,"ELEMENT_SET_NO":999,"REV_AT_EPOCH":1648,"BSTAR":0,"MEAN_MOTION_DOT":-2.31e-6,"MEAN_MOTION_DDOT":0},{"OBJECT_NAME":"GSAT0223 (GALILEO 27)","OBJECT_ID":"2021-116A","EPOCH":"2026-04-24T07:45:19.739232","MEAN_MOTION":1.7047548,"ECCENTRICITY":2.341e-5,"INCLINATION":57.1776,"RA_OF_ASC_NODE":343.1299,"ARG_OF_PERICENTER":233.2925,"MEAN_ANOMALY":308.954,"EPHEMERIS_TYPE":0,"CLASSIFICATION_TYPE":"U","NORAD_CAT_ID":49809,"ELEMENT_SET_NO":999,"REV_AT_EPOCH":2726,"BSTAR":0,"MEAN_MOTION_DOT":-8.8e-7,"MEAN_MOTION_DDOT":0},{"OBJECT_NAME":"GSAT0224 (GALILEO 28)","OBJECT_ID":"2021-116B","EPOCH":"2026-04-24T17:19:56.422848","MEAN_MOTION":1.70475626,"ECCENTRICITY":6.258e-5,"INCLINATION":57.1774,"RA_OF_ASC_NODE":343.118,"ARG_OF_PERICENTER":14.3979,"MEAN_ANOMALY":165.3634,"EPHEMERIS_TYPE":0,"CLASSIFICATION_TYPE":"U","NORAD_CAT_ID":49810,"ELEMENT_SET_NO":999,"REV_AT_EPOCH":2729,"BSTAR":0,"MEAN_MOTION_DOT":-8.9e-7,"MEAN_MOTION_DDOT":0},{"OBJECT_NAME":"COSMOS 2557 (706K)","OBJECT_ID":"2022-075A","EPOCH":"2026-04-25T01:58:56.761824","MEAN_MOTION":2.1310182,"ECCENTRICITY":0.001022,"INCLINATION":64.3294,"RA_OF_ASC_NODE":316.3562,"ARG_OF_PERICENTER":281.4601,"MEAN_ANOMALY":78.4529,"EPHEMERIS_TYPE":0,"CLASSIFICATION_TYPE":"U","NORAD_CAT_ID":52984,"ELEMENT_SET_NO":999,"REV_AT_EPOCH":2958,"BSTAR":0,"MEAN_MOTION_DOT":-2.7e-7,"MEAN_MOTION_DDOT":0},{"OBJECT_NAME":"COSMOS 2559 (707K)","OBJECT_ID":"2022-130A","EPOCH":"2026-04-24T21:39:01.473696","MEAN_MOTION":2.13101428,"ECCENTRICITY":0.00113317,"INCLINATION":64.3024,"RA_OF_ASC_NODE":316.4476,"ARG_OF_PERICENTER":176.1695,"MEAN_ANOMALY":183.8669,"EPHEMERIS_TYPE":0,"CLASSIFICATION_TYPE":"U","NORAD_CAT_ID":54031,"ELEMENT_SET_NO":999,"REV_AT_EPOCH":2755,"BSTAR":0,"MEAN_MOTION_DOT":-2.7e-7,"MEAN_MOTION_DDOT":0},{"OBJECT_NAME":"COSMOS 2564 (761)","OBJECT_ID":"2022-161A","EPOCH":"2026-04-25T05:09:15.538752","MEAN_MOTION":2.1310193,"ECCENTRICITY":0.0011,"INCLINATION":64.739,"RA_OF_ASC_NODE":194.4694,"ARG_OF_PERICENTER":219.468,"MEAN_ANOMALY":140.4982,"EPHEMERIS_TYPE":0,"CLASSIFICATION_TYPE":"U","NORAD_CAT_ID":54377,"ELEMENT_SET_NO":999,"REV_AT_EPOCH":2650,"BSTAR":0,"MEAN_MOTION_DOT":-1.8e-7,"MEAN_MOTION_DDOT":0},{"OBJECT_NAME":"GPS BIII-6  (PRN 28)","OBJECT_ID":"2023-009A","EPOCH":"2026-04-24T02:49:50.651904","MEAN_MOTION":2.00575001,"ECCENTRICITY":0.00055639,"INCLINATION":55.114,"RA_OF_ASC_NODE":150.6438,"ARG_OF_PERICENTER":314.9389,"MEAN_ANOMALY":49.0235,"EPHEMERIS_TYPE":0,"CLASSIFICATION_TYPE":"U","NORAD_CAT_ID":55268,"ELEMENT_SET_NO":999,"REV_AT_EPOCH":2416,"BSTAR":0,"MEAN_MOTION_DOT":3.8e-7,"MEAN_MOTION_DDOT":0}]
